start=new Date('2023-05-09T00:00:00.000Z').valueOf();
sats=[{"TLE_LINE2":"2 55618  43.0016 224.6706 0001349 271.2935  88.7753 15.02529466 13129","LAUNCH_DATE":"2023-02-12","TIME_SYSTEM":"UTC","MEAN_ELEMENT_THEORY":"SGP4","MEAN_ANOMALY":"88.7753","ELEMENT_SET_NO":"999","MEAN_MOTION_DOT":"-0.00001053","FILE":"3904305","CENTER_NAME":"EARTH","EPHEMERIS_TYPE":"0","CLASSIFICATION_TYPE":"U","COUNTRY_CODE":"US","SEMIMAJOR_AXIS":"6937.237","EPOCH":"2023-05-07T23:35:02.395968","INCLINATION":"43.0016","OBJECT_TYPE":"PAYLOAD","ECCENTRICITY":"0.00013490","BSTAR":"-0.00006289900000","RA_OF_ASC_NODE":"224.6706","OBJECT_NAME":"STARLINK-5717","MEAN_MOTION_DDOT":"0.0000000000000","APOAPSIS":"560.037","DECAY_DATE":null,"GP_ID":"231477042","TLE_LINE1":"1 55618U 23020BB  23127.98266662 -.00001053  00000-0 -62899-4 0  9991","PERIAPSIS":"558.166","RCS_SIZE":"LARGE","PERIOD":"95.838","REF_FRAME":"TEME","OBJECT_ID":"2023-020BB","REV_AT_EPOCH":"1312","NORAD_CAT_ID":"55618","MEAN_MOTION":"15.02529466","SITE":"AFETR","ARG_OF_PERICENTER":"271.2935"},{"OBJECT_ID":"2023-020BC","REV_AT_EPOCH":"1319","MEAN_MOTION":"15.02539591","NORAD_CAT_ID":"55619","SITE":"AFETR","ARG_OF_PERICENTER":"275.6955","APOAPSIS":"560.096","DECAY_DATE":null,"TLE_LINE1":"1 55619U 23020BC  23128.44578973  .00001083  00000-0  95192-4 0  9998","GP_ID":"231446171","PERIAPSIS":"558.044","REF_FRAME":"TEME","PERIOD":"95.838","RCS_SIZE":"LARGE","MEAN_MOTION_DDOT":"0.0000000000000","ECCENTRICITY":"0.00014790","BSTAR":"0.00009519200000","RA_OF_ASC_NODE":"222.1244","OBJECT_NAME":"STARLINK-5720","EPOCH":"2023-05-08T10:41:56.232672","INCLINATION":"43.0005","OBJECT_TYPE":"PAYLOAD","CENTER_NAME":"EARTH","EPHEMERIS_TYPE":"0","COUNTRY_CODE":"US","CLASSIFICATION_TYPE":"U","SEMIMAJOR_AXIS":"6937.205","MEAN_MOTION_DOT":"0.00001083","FILE":"3903973","TLE_LINE2":"2 55619  43.0005 222.1244 0001479 275.6955  84.3719 15.02539591 13193","LAUNCH_DATE":"2023-02-12","MEAN_ELEMENT_THEORY":"SGP4","MEAN_ANOMALY":"84.3719","TIME_SYSTEM":"UTC","ELEMENT_SET_NO":"999"},{"FILE":"3904305","MEAN_MOTION_DOT":"-0.00001709","MEAN_ANOMALY":"86.8932","LAUNCH_DATE":"2023-02-12","MEAN_ELEMENT_THEORY":"SGP4","TIME_SYSTEM":"UTC","ELEMENT_SET_NO":"999","TLE_LINE2":"2 55620  43.0015 222.7999 0001441 273.1746  86.8932 15.02526467 13179","OBJECT_TYPE":"PAYLOAD","EPOCH":"2023-05-08T07:22:30.173952","INCLINATION":"43.0015","SEMIMAJOR_AXIS":"6937.246","CLASSIFICATION_TYPE":"U","COUNTRY_CODE":"US","EPHEMERIS_TYPE":"0","CENTER_NAME":"EARTH","MEAN_MOTION_DDOT":"0.0000000000000","RA_OF_ASC_NODE":"222.7999","OBJECT_NAME":"STARLINK-5718","BSTAR":"-0.00011147000000","ECCENTRICITY":"0.00014410","ARG_OF_PERICENTER":"273.1746","SITE":"AFETR","NORAD_CAT_ID":"55620","MEAN_MOTION":"15.02526467","REV_AT_EPOCH":"1317","OBJECT_ID":"2023-020BD","PERIOD":"95.839","RCS_SIZE":"LARGE","REF_FRAME":"TEME","GP_ID":"231478044","TLE_LINE1":"1 55620U 23020BD  23128.30729368 -.00001709  00000-0 -11147-3 0  9995","PERIAPSIS":"558.111","DECAY_DATE":null,"APOAPSIS":"560.111"},{"ECCENTRICITY":"0.00014600","BSTAR":"0.00004366700000","RA_OF_ASC_NODE":"235.5456","OBJECT_NAME":"STARLINK-5709","MEAN_MOTION_DDOT":"0.0000000000000","APOAPSIS":"560.103","DECAY_DATE":null,"PERIAPSIS":"558.077","TLE_LINE1":"1 55621U 23020BE  23125.99387846  .00000386  00000-0  43667-4 0  9990","GP_ID":"231355228","REF_FRAME":"TEME","PERIOD":"95.838","RCS_SIZE":"LARGE","OBJECT_ID":"2023-020BE","REV_AT_EPOCH":"1282","MEAN_MOTION":"15.02533283","NORAD_CAT_ID":"55621","SITE":"AFETR","ARG_OF_PERICENTER":"264.2474","TLE_LINE2":"2 55621  43.0010 235.5456 0001460 264.2474  95.8202 15.02533283 12820","MEAN_ANOMALY":"95.8202","LAUNCH_DATE":"2023-02-12","TIME_SYSTEM":"UTC","ELEMENT_SET_NO":"999","MEAN_ELEMENT_THEORY":"SGP4","MEAN_MOTION_DOT":"0.00000386","FILE":"3902298","CENTER_NAME":"EARTH","EPHEMERIS_TYPE":"0","COUNTRY_CODE":"US","CLASSIFICATION_TYPE":"U","SEMIMAJOR_AXIS":"6937.225","EPOCH":"2023-05-05T23:51:11.098944","INCLINATION":"43.0010","OBJECT_TYPE":"PAYLOAD"},{"MEAN_MOTION_DDOT":"0.0000000000000","ECCENTRICITY":"0.00013470","BSTAR":"-0.00017622000000","RA_OF_ASC_NODE":"222.8217","OBJECT_NAME":"STARLINK-5702","OBJECT_ID":"2023-020BF","REV_AT_EPOCH":"1317","NORAD_CAT_ID":"55622","MEAN_MOTION":"15.02530126","ARG_OF_PERICENTER":"267.4255","SITE":"AFETR","APOAPSIS":"560.034","DECAY_DATE":null,"PERIAPSIS":"558.165","TLE_LINE1":"1 55622U 23020BF  23128.30951039 -.00002583  00000-0 -17622-3 0  9994","GP_ID":"231476542","RCS_SIZE":"LARGE","PERIOD":"95.838","REF_FRAME":"TEME","MEAN_MOTION_DOT":"-0.00002583","FILE":"3904305","TLE_LINE2":"2 55622  43.0014 222.8217 0001347 267.4255  92.6433 15.02530126 13178","LAUNCH_DATE":"2023-02-12","TIME_SYSTEM":"UTC","MEAN_ANOMALY":"92.6433","ELEMENT_SET_NO":"999","MEAN_ELEMENT_THEORY":"SGP4","INCLINATION":"43.0014","EPOCH":"2023-05-08T07:25:41.697696","OBJECT_TYPE":"PAYLOAD","CENTER_NAME":"EARTH","EPHEMERIS_TYPE":"0","CLASSIFICATION_TYPE":"U","COUNTRY_CODE":"US","SEMIMAJOR_AXIS":"6937.235"},{"ARG_OF_PERICENTER":"271.5213","SITE":"AFETR","MEAN_MOTION":"15.02523548","NORAD_CAT_ID":"55623","REV_AT_EPOCH":"1264","OBJECT_ID":"2023-020BG","REF_FRAME":"TEME","PERIOD":"95.839","RCS_SIZE":"LARGE","TLE_LINE1":"1 55623U 23020BG  23124.83334491  .00033311  00000-0  24701-2 0  9992","PERIAPSIS":"558.013","GP_ID":"231281493","DECAY_DATE":null,"APOAPSIS":"560.227","MEAN_MOTION_DDOT":"0.0000000000000","OBJECT_NAME":"STARLINK-5698","RA_OF_ASC_NODE":"241.6361","BSTAR":"0.00247010000000","ECCENTRICITY":"0.00015960","OBJECT_TYPE":"PAYLOAD","INCLINATION":"43.0007","EPOCH":"2023-05-04T20:00:01.000224","SEMIMAJOR_AXIS":"6937.255","COUNTRY_CODE":"US","CLASSIFICATION_TYPE":"U","EPHEMERIS_TYPE":"0","CENTER_NAME":"EARTH","FILE":"3901404","MEAN_MOTION_DOT":"0.00033311","TIME_SYSTEM":"UTC","LAUNCH_DATE":"2023-02-12","MEAN_ELEMENT_THEORY":"SGP4","ELEMENT_SET_NO":"999","MEAN_ANOMALY":"13.9925","TLE_LINE2":"2 55623  43.0007 241.6361 0001596 271.5213  13.9925 15.02523548 12649"},{"EPHEMERIS_TYPE":"0","CENTER_NAME":"EARTH","SEMIMAJOR_AXIS":"6947.688","COUNTRY_CODE":"US","CLASSIFICATION_TYPE":"U","EPOCH":"2023-05-08T21:27:17.591904","INCLINATION":"69.9987","OBJECT_TYPE":"PAYLOAD","TLE_LINE2":"2 55628  69.9987 296.1603 0002990 273.2559  86.8258 14.99140427 13143","MEAN_ANOMALY":"86.8258","LAUNCH_DATE":"2023-02-17","MEAN_ELEMENT_THEORY":"SGP4","ELEMENT_SET_NO":"999","TIME_SYSTEM":"UTC","FILE":"3904305","MEAN_MOTION_DOT":"-0.00000215","DECAY_DATE":null,"APOAPSIS":"571.630","REF_FRAME":"TEME","PERIOD":"96.055","RCS_SIZE":"LARGE","PERIAPSIS":"567.475","TLE_LINE1":"1 55628U 23021A   23128.89395361 -.00000215  00000-0 -99467-5 0  9994","GP_ID":"231477544","REV_AT_EPOCH":"1314","OBJECT_ID":"2023-021A","SITE":"AFWTR","ARG_OF_PERICENTER":"273.2559","MEAN_MOTION":"14.99140427","NORAD_CAT_ID":"55628","BSTAR":"-0.00000994670000","ECCENTRICITY":"0.00029900","OBJECT_NAME":"STARLINK-5484","RA_OF_ASC_NODE":"296.1603","MEAN_MOTION_DDOT":"0.0000000000000"},{"MEAN_MOTION":"14.99148376","NORAD_CAT_ID":"55629","SITE":"AFWTR","ARG_OF_PERICENTER":"264.7929","OBJECT_ID":"2023-021B","REV_AT_EPOCH":"1313","TLE_LINE1":"1 55629U 23021B   23128.84046658  .00000518  00000-0  50160-4 0  9992","PERIAPSIS":"567.389","GP_ID":"231478292","REF_FRAME":"TEME","RCS_SIZE":"LARGE","PERIOD":"96.055","APOAPSIS":"571.667","DECAY_DATE":null,"MEAN_MOTION_DDOT":"0.0000000000000","OBJECT_NAME":"STARLINK-5497","RA_OF_ASC_NODE":"296.3764","ECCENTRICITY":"0.00030790","BSTAR":"0.00005016000000","OBJECT_TYPE":"PAYLOAD","INCLINATION":"69.9982","EPOCH":"2023-05-08T20:10:16.312512","COUNTRY_CODE":"US","CLASSIFICATION_TYPE":"U","SEMIMAJOR_AXIS":"6947.663","CENTER_NAME":"EARTH","EPHEMERIS_TYPE":"0","MEAN_MOTION_DOT":"0.00000518","FILE":"3904305","MEAN_ELEMENT_THEORY":"SGP4","LAUNCH_DATE":"2023-02-17","MEAN_ANOMALY":"95.2879","TIME_SYSTEM":"UTC","ELEMENT_SET_NO":"999","TLE_LINE2":"2 55629  69.9982 296.3764 0003079 264.7929  95.2879 14.99148376 13137"},{"CENTER_NAME":"EARTH","EPHEMERIS_TYPE":"0","CLASSIFICATION_TYPE":"U","COUNTRY_CODE":"US","SEMIMAJOR_AXIS":"6947.663","INCLINATION":"69.9982","EPOCH":"2023-05-08T21:19:52.135104","OBJECT_TYPE":"PAYLOAD","TLE_LINE2":"2 55630  69.9982 296.1416 0003076 270.6604  89.4203 14.99148430 13142","LAUNCH_DATE":"2023-02-17","MEAN_ELEMENT_THEORY":"SGP4","TIME_SYSTEM":"UTC","MEAN_ANOMALY":"89.4203","ELEMENT_SET_NO":"999","MEAN_MOTION_DOT":"0.00001626","FILE":"3904305","APOAPSIS":"571.665","DECAY_DATE":null,"TLE_LINE1":"1 55630U 23021C   23128.88879786  .00001626  00000-0  14107-3 0  9995","GP_ID":"231477043","PERIAPSIS":"567.391","PERIOD":"96.055","RCS_SIZE":"LARGE","REF_FRAME":"TEME","OBJECT_ID":"2023-021C","REV_AT_EPOCH":"1314","NORAD_CAT_ID":"55630","MEAN_MOTION":"14.99148430","ARG_OF_PERICENTER":"270.6604","SITE":"AFWTR","ECCENTRICITY":"0.00030760","BSTAR":"0.00014107000000","RA_OF_ASC_NODE":"296.1416","OBJECT_NAME":"STARLINK-5303","MEAN_MOTION_DDOT":"0.0000000000000"},{"SITE":"AFWTR","ARG_OF_PERICENTER":"270.8903","MEAN_MOTION":"14.98337658","NORAD_CAT_ID":"55631","REV_AT_EPOCH":"1314","OBJECT_ID":"2023-021D","REF_FRAME":"TEME","PERIOD":"96.107","RCS_SIZE":"LARGE","PERIAPSIS":"569.897","TLE_LINE1":"1 55631U 23021D   23128.86312081  .00000568  00000-0  55350-4 0  9994","GP_ID":"231477288","DECAY_DATE":null,"APOAPSIS":"574.171","MEAN_MOTION_DDOT":"0.0000000000000","RA_OF_ASC_NODE":"296.0523","OBJECT_NAME":"STARLINK-5558","BSTAR":"0.00005535000000","ECCENTRICITY":"0.00030750","OBJECT_TYPE":"PAYLOAD","INCLINATION":"69.9996","EPOCH":"2023-05-08T20:42:53.637984","SEMIMAJOR_AXIS":"6950.169","COUNTRY_CODE":"US","CLASSIFICATION_TYPE":"U","EPHEMERIS_TYPE":"0","CENTER_NAME":"EARTH","FILE":"3904305","MEAN_MOTION_DOT":"0.00000568","MEAN_ANOMALY":"89.1904","LAUNCH_DATE":"2023-02-17","MEAN_ELEMENT_THEORY":"SGP4","TIME_SYSTEM":"UTC","ELEMENT_SET_NO":"999","TLE_LINE2":"2 55631  69.9996 296.0523 0003075 270.8903  89.1904 14.98337658 13145"}];
